 [
    [
        {
            "fname": "Nona",
            "lname": "Ramos",
            "tel": "(699)514-4467",
            "address": "255 Sed Ave",
            "city": "King George",
            "state": "NV",
            "zip": 56568
        },
        {
            "fname": "Leovigildo",
            "lname": "Preston",
            "tel": "(431)557-3427",
            "address": "517 Placerat Ln",
            "city": "Saint Ann",
            "state": "NY",
            "zip": 27446
        },
        {
            "fname": "Chad",
            "lname": "Abney",
            "tel": "(145)120-3882",
            "address": "2852 Amet Dr",
            "city": "Saskatoon",
            "state": "AK",
            "zip": 28915
        },
        {
            "fname": "Xin",
            "lname": "Flack",
            "tel": "(352)484-2695",
            "address": "8590 Mattis Ln",
            "city": "Flagstaff",
            "state": "AR",
            "zip": 97443
        },
        {
            "fname": "Megan",
            "lname": "Creason",
            "tel": "(772)550-1962",
            "address": "772 Sollicitudin Ln",
            "city": "San Francisco",
            "state": "HI",
            "zip": 53332
        },
        {
            "fname": "Angelique",
            "lname": "Johnson",
            "tel": "(683)593-6272",
            "address": "912 Turpis Dr",
            "city": "Huntsville",
            "state": "AK",
            "zip": 27843
        },
        {
            "fname": "Willie",
            "lname": "Elmuccio",
            "tel": "(365)553-4927",
            "address": "5798 Placerat Rd",
            "city": "Catlettsburg",
            "state": "OK",
            "zip": 46146
        },
        {
            "fname": "Yvette",
            "lname": "Hull",
            "tel": "(738)446-3358",
            "address": "1240 Augue St",
            "city": "Tomball",
            "state": "LA",
            "zip": 91811
        },
        {
            "fname": "Wyatra",
            "lname": "Schaffer",
            "tel": "(176)289-7627",
            "address": "4527 Magna St",
            "city": "Harrison",
            "state": "GA",
            "zip": 10910
        },
        {
            "fname": "Triandi",
            "lname": "Khillah",
            "tel": "(231)468-0128",
            "address": "4906 At Rd",
            "city": "Underwood",
            "state": "VT",
            "zip": 72298
        }
    ] 
]